{"type": "FeatureCollection", "features": [ {"type": "Feature", "properties": {"norad_id": 39122, "name": "EUTELSAT 117 WEST A", "group": "eutelsat", "lat": -0.0032528905364315737, "lon": 13.43364079595995, "alt_km": 35792.65118052038, "timestamp": "2025-12-04T03:47:54.225274+00:00", "meta": {"OBJECT_NAME": "EUTELSAT 117 WEST A", "OBJECT_ID": "2013-012A", "EPOCH": "2025-12-03T08:49:20.417088", "MEAN_MOTION": 1.00271901, "ECCENTRICITY": 0.0003159, "INCLINATION": 0.0376, "RA_OF_ASC_NODE": 56.9809, "ARG_OF_PERICENTER": 196.7734, "MEAN_ANOMALY": 194.2496, "EPHEMERIS_TYPE": 0, "CLASSIFICATION_TYPE": "U", "NORAD_CAT_ID": 39122, "ELEMENT_SET_NO": 999, "REV_AT_EPOCH": 4647, "BSTAR": 0, "MEAN_MOTION_DOT": 5e-08, "MEAN_MOTION_DDOT": 0}, "tle": {"line1": "1 39122U 13012A   25337.36759742  .00000005  00000+0  00000+0 0  9990", "line2": "2 39122   0.0376  56.9809 0003159 196.7734 194.2496  1.00271901 46474"}}, "geometry": {"type": "Point", "coordinates": [13.43364079595995, -0.0032528905364315737]}}, {"type": "Feature", "properties": {"norad_id": 39163, "name": "EUTELSAT 7B", "group": "eutelsat", "lat": 0.04940654190600237, "lon": 137.18032327853314, "alt_km": 35804.12893659045, "timestamp": "2025-12-04T03:47:54.225302+00:00", "meta": {"OBJECT_NAME": "EUTELSAT 7B", "OBJECT_ID": "2013-022A", "EPOCH": "2025-12-03T08:39:05.058144", "MEAN_MOTION": 1.00269611, "ECCENTRICITY": 0.0004191, "INCLINATION": 0.0677, "RA_OF_ASC_NODE": 0.1048, "ARG_OF_PERICENTER": 310.7582, "MEAN_ANOMALY": 258.36, "EPHEMERIS_TYPE": 0, "CLASSIFICATION_TYPE": "U", "NORAD_CAT_ID": 39163, "ELEMENT_SET_NO": 999, "REV_AT_EPOCH": 4599, "BSTAR": 0, "MEAN_MOTION_DOT": 6.6e-07, "MEAN_MOTION_DDOT": 0}, "tle": {"line1": "1 39163U 13022A   25337.36047521  .00000066  00000+0  00000+0 0  9998", "line2": "2 39163   0.0677   0.1048 0004191 310.7582 258.3600  1.00269611 45995"}}, "geometry": {"type": "Point", "coordinates": [137.18032327853314, 0.04940654190600237]}}, {"type": "Feature", "properties": {"norad_id": 39612, "name": "EXPRESS-AT1", "group": "eutelsat", "lat": -0.03404081014502083, "lon": -173.80877762721227, "alt_km": 35785.52132551316, "timestamp": "2025-12-04T03:47:54.225316+00:00", "meta": {"OBJECT_NAME": "EXPRESS-AT1", "OBJECT_ID": "2014-010A", "EPOCH": "2025-12-03T12:43:38.719200", "MEAN_MOTION": 1.00269885, "ECCENTRICITY": 2.81e-05, "INCLINATION": 0.0165, "RA_OF_ASC_NODE": 299.7247, "ARG_OF_PERICENTER": 218.5792, "MEAN_ANOMALY": 161.2291, "EPHEMERIS_TYPE": 0, "CLASSIFICATION_TYPE": "U", "NORAD_CAT_ID": 39612, "ELEMENT_SET_NO": 999, "REV_AT_EPOCH": 4285, "BSTAR": 0, "MEAN_MOTION_DOT": 9.7e-07, "MEAN_MOTION_DDOT": 0}, "tle": {"line1": "1 39612U 14010A   25337.53030925  .00000097  00000+0  00000+0 0  9998", "line2": "2 39612   0.0165 299.7247 0000281 218.5792 161.2291  1.00269885 42850"}}, "geometry": {"type": "Point", "coordinates": [-173.80877762721227, -0.03404081014502083]}}, {"type": "Feature", "properties": {"norad_id": 39613, "name": "EXPRESS-AT2", "group": "eutelsat", "lat": -0.03985501378868566, "lon": -89.97470830731638, "alt_km": 35780.684462683166, "timestamp": "2025-12-04T03:47:54.225328+00:00", "meta": {"OBJECT_NAME": "EXPRESS-AT2", "OBJECT_ID": "2014-010B", "EPOCH": "2025-12-03T17:43:52.074624", "MEAN_MOTION": 1.00270479, "ECCENTRICITY": 0.000148, "INCLINATION": 0.0222, "RA_OF_ASC_NODE": 329.3759, "ARG_OF_PERICENTER": 322.2198, "MEAN_ANOMALY": 187.0383, "EPHEMERIS_TYPE": 0, "CLASSIFICATION_TYPE": "U", "NORAD_CAT_ID": 39613, "ELEMENT_SET_NO": 999, "REV_AT_EPOCH": 4254, "BSTAR": 0, "MEAN_MOTION_DOT": 0, "MEAN_MOTION_DDOT": 0}, "tle": {"line1": "1 39613U 14010B   25337.73879716  .00000000  00000+0  00000+0 0  9994", "line2": "2 39613   0.0222 329.3759 0001480 322.2198 187.0383  1.00270479 42543"}}, "geometry": {"type": "Point", "coordinates": [-89.97470830731638, -0.03985501378868566]}}, {"type": "Feature", "properties": {"norad_id": 39773, "name": "EUTELSAT 3B", "group": "eutelsat", "lat": 0.053331462482214924, "lon": 133.2293216829354, "alt_km": 35788.21299388844, "timestamp": "2025-12-04T03:47:54.225341+00:00", "meta": {"OBJECT_NAME": "EUTELSAT 3B", "OBJECT_ID": "2014-030A", "EPOCH": "2025-12-03T18:42:38.602944", "MEAN_MOTION": 1.00270877, "ECCENTRICITY": 0.0004781, "INCLINATION": 0.0635, "RA_OF_ASC_NODE": 3.048, "ARG_OF_PERICENTER": 225.3781, "MEAN_ANOMALY": 128.1935, "EPHEMERIS_TYPE": 0, "CLASSIFICATION_TYPE": "U", "NORAD_CAT_ID": 39773, "ELEMENT_SET_NO": 999, "REV_AT_EPOCH": 4210, "BSTAR": 0, "MEAN_MOTION_DOT": 3.7e-07, "MEAN_MOTION_DDOT": 0}, "tle": {"line1": "1 39773U 14030A   25337.77961346  .00000037  00000+0  00000+0 0  9998", "line2": "2 39773   0.0635   3.0480 0004781 225.3781 128.1935  1.00270877 42106"}}, "geometry": {"type": "Point", "coordinates": [133.2293216829354, 0.053331462482214924]}}, {"type": "Feature", "properties": {"norad_id": 40425, "name": "EUTELSAT 115 WEST B", "group": "eutelsat", "lat": -0.00924566682064861, "lon": 15.293490197645935, "alt_km": 35785.849762344216, "timestamp": "2025-12-04T03:47:54.225353+00:00", "meta": {"OBJECT_NAME": "EUTELSAT 115 WEST B", "OBJECT_ID": "2015-010B", "EPOCH": "2025-12-03T16:37:59.708352", "MEAN_MOTION": 1.00270514, "ECCENTRICITY": 4.79e-05, "INCLINATION": 0.0142, "RA_OF_ASC_NODE": 147.7315, "ARG_OF_PERICENTER": 301.2332, "MEAN_ANOMALY": 118.4232, "EPHEMERIS_TYPE": 0, "CLASSIFICATION_TYPE": "U", "NORAD_CAT_ID": 40425, "ELEMENT_SET_NO": 999, "REV_AT_EPOCH": 3943, "BSTAR": 0, "MEAN_MOTION_DOT": -7e-08, "MEAN_MOTION_DDOT": 0}, "tle": {"line1": "1 40425U 15010B   25337.69305218 -.00000007  00000+0  00000+0 0  9992", "line2": "2 40425   0.0142 147.7315 0000479 301.2332 118.4232  1.00270514 39436"}}, "geometry": {"type": "Point", "coordinates": [15.293490197645935, -0.00924566682064861]}}, {"type": "Feature", "properties": {"norad_id": 40875, "name": "EUTELSAT 8 WEST B", "group": "eutelsat", "lat": 0.05676302117720837, "lon": 122.16213530387462, "alt_km": 35798.03851368904, "timestamp": "2025-12-04T03:47:54.225365+00:00", "meta": {"OBJECT_NAME": "EUTELSAT 8 WEST B", "OBJECT_ID": "2015-039B", "EPOCH": "2025-12-03T18:42:38.602944", "MEAN_MOTION": 1.00271603, "ECCENTRICITY": 0.0004137, "INCLINATION": 0.0656, "RA_OF_ASC_NODE": 348.0497, "ARG_OF_PERICENTER": 266.975, "MEAN_ANOMALY": 90.5072, "EPHEMERIS_TYPE": 0, "CLASSIFICATION_TYPE": "U", "NORAD_CAT_ID": 40875, "ELEMENT_SET_NO": 999, "REV_AT_EPOCH": 3769, "BSTAR": 0, "MEAN_MOTION_DOT": -4.8e-07, "MEAN_MOTION_DDOT": 0}, "tle": {"line1": "1 40875U 15039B   25337.77961346 -.00000048  00000+0  00000+0 0  9996", "line2": "2 40875   0.0656 348.0497 0004137 266.9750  90.5072  1.00271603 37696"}}, "geometry": {"type": "Point", "coordinates": [122.16213530387462, 0.05676302117720837]}}, {"type": "Feature", "properties": {"norad_id": 41310, "name": "EUTELSAT 9B", "group": "eutelsat", "lat": 0.056509864551196845, "lon": 139.12985971961743, "alt_km": 35798.3493367605, "timestamp": "2025-12-04T03:47:54.225377+00:00", "meta": {"OBJECT_NAME": "EUTELSAT 9B", "OBJECT_ID": "2016-005A", "EPOCH": "2025-12-03T17:13:26.313024", "MEAN_MOTION": 1.00271389, "ECCENTRICITY": 0.0004931, "INCLINATION": 0.0665, "RA_OF_ASC_NODE": 75.1614, "ARG_OF_PERICENTER": 189.8665, "MEAN_ANOMALY": 75.1206, "EPHEMERIS_TYPE": 0, "CLASSIFICATION_TYPE": "U", "NORAD_CAT_ID": 41310, "ELEMENT_SET_NO": 999, "REV_AT_EPOCH": 3615, "BSTAR": 0, "MEAN_MOTION_DOT": 7.9e-07, "MEAN_MOTION_DDOT": 0}, "tle": {"line1": "1 41310U 16005A   25337.71766566  .00000079  00000+0  00000+0 0  9999", "line2": "2 41310   0.0665  75.1614 0004931 189.8665  75.1206  1.00271389 36159"}}, "geometry": {"type": "Point", "coordinates": [139.12985971961743, 0.056509864551196845]}}, {"type": "Feature", "properties": {"norad_id": 41382, "name": "EUTELSAT 65 WEST A", "group": "eutelsat", "lat": 0.0741051705755486, "lon": 64.99597953789564, "alt_km": 35797.878926566606, "timestamp": "2025-12-04T03:47:54.225389+00:00", "meta": {"OBJECT_NAME": "EUTELSAT 65 WEST A", "OBJECT_ID": "2016-014A", "EPOCH": "2025-12-03T10:01:12.190080", "MEAN_MOTION": 1.00270652, "ECCENTRICITY": 0.000278, "INCLINATION": 0.0504, "RA_OF_ASC_NODE": 344.5568, "ARG_OF_PERICENTER": 274.9702, "MEAN_ANOMALY": 258.0819, "EPHEMERIS_TYPE": 0, "CLASSIFICATION_TYPE": "U", "NORAD_CAT_ID": 41382, "ELEMENT_SET_NO": 999, "REV_AT_EPOCH": 3557, "BSTAR": 0, "MEAN_MOTION_DOT": -2.58e-06, "MEAN_MOTION_DDOT": 0}, "tle": {"line1": "1 41382U 16014A   25337.41750220 -.00000258  00000+0  00000+0 0  9995", "line2": "2 41382   0.0504 344.5568 0002780 274.9702 258.0819  1.00270652 35578"}}, "geometry": {"type": "Point", "coordinates": [64.99597953789564, 0.0741051705755486]}}, {"type": "Feature", "properties": {"norad_id": 41589, "name": "EUTELSAT 117 WEST B", "group": "eutelsat", "lat": -0.014402421730980917, "lon": 13.181701328473476, "alt_km": 35787.460246657705, "timestamp": "2025-12-04T03:47:54.225401+00:00", "meta": {"OBJECT_NAME": "EUTELSAT 117 WEST B", "OBJECT_ID": "2016-038B", "EPOCH": "2025-12-03T16:37:22.266912", "MEAN_MOTION": 1.002675, "ECCENTRICITY": 2.71e-05, "INCLINATION": 0.0072, "RA_OF_ASC_NODE": 146.0291, "ARG_OF_PERICENTER": 327.1169, "MEAN_ANOMALY": 91.9765, "EPHEMERIS_TYPE": 0, "CLASSIFICATION_TYPE": "U", "NORAD_CAT_ID": 41589, "ELEMENT_SET_NO": 999, "REV_AT_EPOCH": 3470, "BSTAR": 0, "MEAN_MOTION_DOT": 7e-08, "MEAN_MOTION_DDOT": 0}, "tle": {"line1": "1 41589U 16038B   25337.69261883  .00000007  00000+0  00000+0 0  9993", "line2": "2 41589   0.0072 146.0291 0000271 327.1169  91.9765  1.00267500 34702"}}, "geometry": {"type": "Point", "coordinates": [13.181701328473476, -0.014402421730980917]}}]}